start=new Date('2022-12-21T00:00:00.000Z').valueOf();
sats=[{"MEAN_MOTION":"15.06403189","REF_FRAME":"TEME","TIME_SYSTEM":"UTC","FILE":"3713448","GP_ID":"221036374","NORAD_CAT_ID":"45750","LAUNCH_DATE":"2020-06-13","RA_OF_ASC_NODE":"91.3641","DECAY_DATE":null,"MEAN_ANOMALY":"314.2372","EPHEMERIS_TYPE":"0","MEAN_MOTION_DOT":"0.00001403","BSTAR":"0.00011309000000","EPOCH":"2022-12-20T16:45:45.637632","TLE_LINE2":"2 45750  53.0542  91.3641 0001773  45.8763 314.2372 15.06403189140494","CENTER_NAME":"EARTH","MEAN_MOTION_DDOT":"0.0000000000000","INCLINATION":"53.0542","APOAPSIS":"548.432","PERIAPSIS":"545.976","CLASSIFICATION_TYPE":"U","OBJECT_TYPE":"PAYLOAD","ECCENTRICITY":"0.00017730","ELEMENT_SET_NO":"999","OBJECT_NAME":"STARLINK-1391","MEAN_ELEMENT_THEORY":"SGP4","OBJECT_ID":"2020-038W","REV_AT_EPOCH":"14049","SEMIMAJOR_AXIS":"6925.339","TLE_LINE1":"1 45750U 20038W   22354.69844488  .00001403  00000-0  11309-3 0  9996","PERIOD":"95.592","COUNTRY_CODE":"US","RCS_SIZE":"LARGE","SITE":"AFETR","ARG_OF_PERICENTER":"45.8763"},{"CLASSIFICATION_TYPE":"U","OBJECT_NAME":"STARLINK-1464","ECCENTRICITY":"0.00022750","ELEMENT_SET_NO":"999","OBJECT_TYPE":"PAYLOAD","PERIAPSIS":"545.561","APOAPSIS":"548.712","INCLINATION":"53.0549","RCS_SIZE":"LARGE","COUNTRY_CODE":"US","TLE_LINE1":"1 45751U 20038X   22354.62841110  .00003877  00000-0  27886-3 0  9993","PERIOD":"95.591","ARG_OF_PERICENTER":"32.5105","SITE":"AFETR","MEAN_ELEMENT_THEORY":"SGP4","SEMIMAJOR_AXIS":"6925.271","REV_AT_EPOCH":"14048","OBJECT_ID":"2020-038X","TIME_SYSTEM":"UTC","FILE":"3713449","LAUNCH_DATE":"2020-06-13","NORAD_CAT_ID":"45751","GP_ID":"221036392","MEAN_MOTION":"15.06425284","REF_FRAME":"TEME","EPOCH":"2022-12-20T15:04:54.719040","MEAN_MOTION_DOT":"0.00003877","BSTAR":"0.00027886000000","EPHEMERIS_TYPE":"0","MEAN_ANOMALY":"327.6024","MEAN_MOTION_DDOT":"0.0000000000000","CENTER_NAME":"EARTH","TLE_LINE2":"2 45751  53.0549  91.6861 0002275  32.5105 327.6024 15.06425284140481","DECAY_DATE":null,"RA_OF_ASC_NODE":"91.6861"},{"FILE":"3713481","TIME_SYSTEM":"UTC","GP_ID":"221037338","NORAD_CAT_ID":"45753","LAUNCH_DATE":"2020-06-13","MEAN_MOTION":"15.06409661","REF_FRAME":"TEME","MEAN_ANOMALY":"319.7313","EPOCH":"2022-12-20T16:56:22.370208","MEAN_MOTION_DOT":"-0.00000474","BSTAR":"-0.00001289500000","EPHEMERIS_TYPE":"0","TLE_LINE2":"2 45753  53.0549  91.3168 0001978  40.3823 319.7313 15.06409661140498","MEAN_MOTION_DDOT":"0.0000000000000","CENTER_NAME":"EARTH","RA_OF_ASC_NODE":"91.3168","DECAY_DATE":null,"CLASSIFICATION_TYPE":"U","OBJECT_TYPE":"PAYLOAD","OBJECT_NAME":"STARLINK-1476","ELEMENT_SET_NO":"999","ECCENTRICITY":"0.00019780","APOAPSIS":"548.554","INCLINATION":"53.0549","PERIAPSIS":"545.814","PERIOD":"95.592","TLE_LINE1":"1 45753U 20038Z   22354.70581447 -.00000474  00000-0 -12895-4 0  9995","RCS_SIZE":"LARGE","COUNTRY_CODE":"US","SITE":"AFETR","ARG_OF_PERICENTER":"40.3823","MEAN_ELEMENT_THEORY":"SGP4","REV_AT_EPOCH":"14049","OBJECT_ID":"2020-038Z","SEMIMAJOR_AXIS":"6925.319"},{"GP_ID":"221023281","NORAD_CAT_ID":"45754","LAUNCH_DATE":"2020-06-13","FILE":"3713130","TIME_SYSTEM":"UTC","REF_FRAME":"TEME","MEAN_MOTION":"15.06406552","TLE_LINE2":"2 45754  53.0547  92.5030 0001841  47.0669 313.0474 15.06406552139342","CENTER_NAME":"EARTH","MEAN_MOTION_DDOT":"0.0000000000000","MEAN_ANOMALY":"313.0474","EPHEMERIS_TYPE":"0","MEAN_MOTION_DOT":"0.00001944","EPOCH":"2022-12-20T10:39:31.193856","BSTAR":"0.00014938000000","RA_OF_ASC_NODE":"92.5030","DECAY_DATE":null,"OBJECT_TYPE":"PAYLOAD","ELEMENT_SET_NO":"999","ECCENTRICITY":"0.00018410","OBJECT_NAME":"STARLINK-1477","CLASSIFICATION_TYPE":"U","INCLINATION":"53.0547","APOAPSIS":"548.468","PERIAPSIS":"545.919","ARG_OF_PERICENTER":"47.0669","SITE":"AFETR","TLE_LINE1":"1 45754U 20038AA  22354.44411104  .00001944  00000-0  14938-3 0  9999","PERIOD":"95.592","COUNTRY_CODE":"US","RCS_SIZE":"LARGE","OBJECT_ID":"2020-038AA","REV_AT_EPOCH":"13934","SEMIMAJOR_AXIS":"6925.328","MEAN_ELEMENT_THEORY":"SGP4"},{"FILE":"3713482","TIME_SYSTEM":"UTC","GP_ID":"221037353","LAUNCH_DATE":"2020-06-13","NORAD_CAT_ID":"45755","MEAN_MOTION":"15.06437713","REF_FRAME":"TEME","MEAN_ANOMALY":"320.3798","EPHEMERIS_TYPE":"0","MEAN_MOTION_DOT":"-0.00005535","EPOCH":"2022-12-20T12:41:35.095488","BSTAR":"-0.00035262000000","TLE_LINE2":"2 45755  53.0558  92.1162 0001662  39.7313 320.3798 15.06437713140460","CENTER_NAME":"EARTH","MEAN_MOTION_DDOT":"0.0000000000000","RA_OF_ASC_NODE":"92.1162","DECAY_DATE":null,"CLASSIFICATION_TYPE":"U","OBJECT_TYPE":"PAYLOAD","ELEMENT_SET_NO":"999","ECCENTRICITY":"0.00016620","OBJECT_NAME":"STARLINK-1478","INCLINATION":"53.0558","APOAPSIS":"548.249","PERIAPSIS":"545.947","TLE_LINE1":"1 45755U 20038AB  22354.52887842 -.00005535  00000-0 -35262-3 0  9990","PERIOD":"95.590","COUNTRY_CODE":"US","RCS_SIZE":"LARGE","SITE":"AFETR","ARG_OF_PERICENTER":"39.7313","MEAN_ELEMENT_THEORY":"SGP4","REV_AT_EPOCH":"14046","OBJECT_ID":"2020-038AB","SEMIMAJOR_AXIS":"6925.233"},{"REF_FRAME":"TEME","MEAN_MOTION":"15.06409405","GP_ID":"221024283","LAUNCH_DATE":"2020-06-13","NORAD_CAT_ID":"45756","TIME_SYSTEM":"UTC","FILE":"3713130","RA_OF_ASC_NODE":"92.4363","DECAY_DATE":null,"TLE_LINE2":"2 45756  53.0545  92.4363 0001734  52.9230 307.1917 15.06409405139335","MEAN_MOTION_DDOT":"0.0000000000000","CENTER_NAME":"EARTH","MEAN_ANOMALY":"307.1917","MEAN_MOTION_DOT":"0.00004856","EPOCH":"2022-12-20T10:59:23.733312","BSTAR":"0.00034461000000","EPHEMERIS_TYPE":"0","APOAPSIS":"548.386","INCLINATION":"53.0545","PERIAPSIS":"545.984","OBJECT_TYPE":"PAYLOAD","OBJECT_NAME":"STARLINK-1484","ELEMENT_SET_NO":"999","ECCENTRICITY":"0.00017340","CLASSIFICATION_TYPE":"U","OBJECT_ID":"2020-038AC","REV_AT_EPOCH":"13933","SEMIMAJOR_AXIS":"6925.320","MEAN_ELEMENT_THEORY":"SGP4","SITE":"AFETR","ARG_OF_PERICENTER":"52.9230","PERIOD":"95.592","TLE_LINE1":"1 45756U 20038AC  22354.45791358  .00004856  00000-0  34461-3 0  9992","RCS_SIZE":"LARGE","COUNTRY_CODE":"US"},{"INCLINATION":"53.0554","APOAPSIS":"548.587","PERIAPSIS":"545.867","CLASSIFICATION_TYPE":"U","OBJECT_TYPE":"PAYLOAD","ECCENTRICITY":"0.00019640","ELEMENT_SET_NO":"999","OBJECT_NAME":"STARLINK-1486","MEAN_ELEMENT_THEORY":"SGP4","REV_AT_EPOCH":"13934","OBJECT_ID":"2020-038AD","SEMIMAJOR_AXIS":"6925.362","PERIOD":"95.592","TLE_LINE1":"1 45757U 20038AD  22354.54364091  .00000881  00000-0  78081-4 0  9994","COUNTRY_CODE":"US","RCS_SIZE":"LARGE","ARG_OF_PERICENTER":"45.6159","SITE":"AFETR","MEAN_MOTION":"15.06395646","REF_FRAME":"TEME","TIME_SYSTEM":"UTC","FILE":"3713130","GP_ID":"221025033","NORAD_CAT_ID":"45757","LAUNCH_DATE":"2020-06-13","RA_OF_ASC_NODE":"92.0681","DECAY_DATE":null,"MEAN_ANOMALY":"314.4990","EPHEMERIS_TYPE":"0","MEAN_MOTION_DOT":"0.00000881","BSTAR":"0.00007808100000","EPOCH":"2022-12-20T13:02:50.574624","TLE_LINE2":"2 45757  53.0554  92.0681 0001964  45.6159 314.4990 15.06395646139343","CENTER_NAME":"EARTH","MEAN_MOTION_DDOT":"0.0000000000000"},{"SEMIMAJOR_AXIS":"6925.338","OBJECT_ID":"2020-038AE","REV_AT_EPOCH":"13933","MEAN_ELEMENT_THEORY":"SGP4","SITE":"AFETR","ARG_OF_PERICENTER":"48.5437","COUNTRY_CODE":"US","RCS_SIZE":"LARGE","PERIOD":"95.592","TLE_LINE1":"1 45758U 20038AE  22354.46991209  .00002041  00000-0  15585-3 0  9992","PERIAPSIS":"545.945","INCLINATION":"53.0556","APOAPSIS":"548.460","ELEMENT_SET_NO":"999","ECCENTRICITY":"0.00018160","OBJECT_NAME":"STARLINK-1487","OBJECT_TYPE":"PAYLOAD","CLASSIFICATION_TYPE":"U","DECAY_DATE":null,"RA_OF_ASC_NODE":"92.3891","CENTER_NAME":"EARTH","MEAN_MOTION_DDOT":"0.0000000000000","TLE_LINE2":"2 45758  53.0556  92.3891 0001816  48.5437 311.5708 15.06403518139331","EPHEMERIS_TYPE":"0","MEAN_MOTION_DOT":"0.00002041","BSTAR":"0.00015585000000","EPOCH":"2022-12-20T11:16:40.404576","MEAN_ANOMALY":"311.5708","REF_FRAME":"TEME","MEAN_MOTION":"15.06403518","NORAD_CAT_ID":"45758","LAUNCH_DATE":"2020-06-13","GP_ID":"221023782","FILE":"3713130","TIME_SYSTEM":"UTC"},{"REV_AT_EPOCH":"13935","OBJECT_ID":"2020-038AF","SEMIMAJOR_AXIS":"6925.345","MEAN_ELEMENT_THEORY":"SGP4","SITE":"AFETR","ARG_OF_PERICENTER":"51.3860","TLE_LINE1":"1 45759U 20038AF  22354.58418647  .00001100  00000-0  92747-4 0  9997","PERIOD":"95.592","RCS_SIZE":"LARGE","COUNTRY_CODE":"US","APOAPSIS":"548.565","INCLINATION":"53.0560","PERIAPSIS":"545.854","OBJECT_TYPE":"PAYLOAD","OBJECT_NAME":"STARLINK-1493","ECCENTRICITY":"0.00019570","ELEMENT_SET_NO":"999","CLASSIFICATION_TYPE":"U","RA_OF_ASC_NODE":"91.8829","DECAY_DATE":null,"TLE_LINE2":"2 45759  53.0560  91.8829 0001957  51.3860 308.7304 15.06401231139352","MEAN_MOTION_DDOT":"0.0000000000000","CENTER_NAME":"EARTH","MEAN_ANOMALY":"308.7304","MEAN_MOTION_DOT":"0.00001100","EPOCH":"2022-12-20T14:01:13.711008","BSTAR":"0.00009274700000","EPHEMERIS_TYPE":"0","REF_FRAME":"TEME","MEAN_MOTION":"15.06401231","GP_ID":"221024032","NORAD_CAT_ID":"45759","LAUNCH_DATE":"2020-06-13","FILE":"3713130","TIME_SYSTEM":"UTC"},{"CLASSIFICATION_TYPE":"U","OBJECT_TYPE":"PAYLOAD","ELEMENT_SET_NO":"999","ECCENTRICITY":"0.00018940","OBJECT_NAME":"STARLINK-1494","INCLINATION":"53.0578","APOAPSIS":"548.507","PERIAPSIS":"545.884","TLE_LINE1":"1 45760U 20038AG  22354.45516960  .00003084  00000-0  22584-3 0  9996","PERIOD":"95.592","COUNTRY_CODE":"US","RCS_SIZE":"LARGE","ARG_OF_PERICENTER":"44.3029","SITE":"AFETR","MEAN_ELEMENT_THEORY":"SGP4","REV_AT_EPOCH":"13934","OBJECT_ID":"2020-038AG","SEMIMAJOR_AXIS":"6925.330","FILE":"3713130","TIME_SYSTEM":"UTC","GP_ID":"221024784","LAUNCH_DATE":"2020-06-13","NORAD_CAT_ID":"45760","MEAN_MOTION":"15.06405929","REF_FRAME":"TEME","MEAN_ANOMALY":"315.8111","EPHEMERIS_TYPE":"0","BSTAR":"0.00022584000000","MEAN_MOTION_DOT":"0.00003084","EPOCH":"2022-12-20T10:55:26.653440","TLE_LINE2":"2 45760  53.0578  92.4431 0001894  44.3029 315.8111 15.06405929139340","CENTER_NAME":"EARTH","MEAN_MOTION_DDOT":"0.0000000000000","RA_OF_ASC_NODE":"92.4431","DECAY_DATE":null}];
